     2.11           N: GPS NAV DATA                         RINEX VERSION / TYPE
teqc  2018Dec12     gpsops              20220206 01:03:59UTCPGM / RUN BY / DATE
Linux 2.6.32-573.12.1.x86_64|x86_64|gcc -static|Linux 64|=+ COMMENT
CHPI                                    MARKER NAME         COMMENT
41609M003                               MARKER NUMBER       COMMENT
4164613.9484 -4162456.9866 -2445028.7316                    COMMENT
                                                            COMMENT
This data is provided as a public service by NASA/JPL.      COMMENT
No warranty is expressed or implied regarding suitability   COMMENT
for use.  For further information, contact:                 COMMENT
Dave Stowers, NASA/JPL m/s 238-600                          COMMENT
4800 Oak Grove Drive, Pasadena CA 91109 USA                 COMMENT
                                                            END OF HEADER
28 22  2  5  2  0  0.0 4.073232412338D-04-8.185452315956D-12 0.000000000000D+00
    9.200000000000D+01-1.503125000000D+01 4.647693595094D-09-1.937851108488D+00
   -3.576278686523D-07 1.686854509171D-02 5.196779966354D-06 5.153694046021D+03
    5.256000000000D+05 1.676380634308D-08 2.607437000800D+00 3.855675458908D-07
    9.695243449005D-01 2.823750000000D+02-1.289806819483D+00-8.098194465162D-09
   -1.825076021742D-10 1.000000000000D+00 2.195000000000D+03 0.000000000000D+00
    4.000000000000D+00 6.300000000000D+01-1.117587089539D-08 9.200000000000D+01
    5.204280000000D+05 4.000000000000D+00
 5 22  2  5  2  0  0.0-7.032044231892D-05-1.364242052659D-12 0.000000000000D+00
    8.400000000000D+01-3.156250000000D+01 4.858059500535D-09-1.952403345642D+00
   -1.592561602592D-06 5.867388681509D-03 3.458932042122D-06 5.153656543732D+03
    5.256000000000D+05 7.078051567078D-08-6.677702529800D-01-5.215406417847D-08
    9.594628902806D-01 3.117187500000D+02 1.011044678092D+00-8.407135905242D-09
   -1.046472161195D-10 1.000000000000D+00 2.195000000000D+03 0.000000000000D+00
    2.000000000000D+00 0.000000000000D+00-1.117587089539D-08 8.400000000000D+01
    5.221380000000D+05 4.000000000000D+00
17 22  2  5  2  0  0.0 5.708541721106D-04 5.115907697473D-12 0.000000000000D+00
    5.500000000000D+01 3.718750000000D+00 3.983737367223D-09-2.420549574589D+00
    2.663582563400D-07 1.365085877478D-02 1.101382076740D-05 5.153754266739D+03
    5.256000000000D+05 1.396983861923D-07-2.660884010625D+00 1.676380634308D-07
    9.802323069073D-01 1.745312500000D+02-1.501214928062D+00-7.498169471713D-09
   -1.903650723265D-10 1.000000000000D+00 2.195000000000D+03 0.000000000000D+00
    2.000000000000D+00 0.000000000000D+00-1.117587089539D-08 5.500000000000D+01
    5.226720000000D+05 4.000000000000D+00
13 22  2  5  2  0  0.0 2.565234899521D-04 6.139089236967D-12 0.000000000000D+00
    6.100000000000D+01-4.878125000000D+01 3.968022426919D-09-2.914423194361D+00
   -2.507120370865D-06 5.799170234241D-03 1.213327050209D-05 5.153682865143D+03
    5.256000000000D+05 4.284083843231D-08 5.532097818765D-01-9.313225746155D-09
    9.688701542680D-01 1.485625000000D+02 9.645291379730D-01-7.683177178026D-09
   -1.010756387775D-10 1.000000000000D+00 2.195000000000D+03 0.000000000000D+00
    2.000000000000D+00 0.000000000000D+00-1.117587089539D-08 6.100000000000D+01
    5.247480000000D+05 4.000000000000D+00
19 22  2  5  2  0  0.0 1.147375442088D-04 5.002220859751D-12 0.000000000000D+00
    2.200000000000D+01 1.406250000000D+00 4.101242261774D-09-1.299499596803D-02
    9.685754776001D-08 8.943086257204D-03 1.115724444389D-05 5.153683734894D+03
    5.256000000000D+05-5.029141902924D-08-2.616012799205D+00-5.215406417847D-08
    9.789626168996D-01 1.777812500000D+02 2.004094179367D+00-7.924258648609D-09
   -2.332240004300D-10 1.000000000000D+00 2.195000000000D+03 0.000000000000D+00
    2.000000000000D+00 0.000000000000D+00-1.583248376846D-08 2.200000000000D+01
    5.254380000000D+05 4.000000000000D+00
14 22  2  5  4  0  0.0-7.998384535313D-05-4.774847184308D-12 0.000000000000D+00
    2.390000000000D+02-6.500000000000D+00 5.044495837785D-09 1.465646342487D+00
   -4.041939973831D-07 1.396929845214D-03 4.652887582779D-06 5.153644773483D+03
    5.328000000000D+05 4.284083843231D-08 2.554160703274D+00-1.862645149231D-09
    9.538001509076D-01 2.859062500000D+02 3.023801882354D+00-8.471781455131D-09
   -1.335769925893D-10 1.000000000000D+00 2.195000000000D+03 0.000000000000D+00
    2.000000000000D+00 0.000000000000D+00-7.450580596924D-09 1.007000000000D+03
    5.256180000000D+05 4.000000000000D+00
30 22  2  5  4  0  0.0-5.113915540278D-04-2.387423592154D-12 0.000000000000D+00
    5.500000000000D+01 5.396875000000D+01 5.069854036913D-09 2.093952696460D+00
    2.823770046234D-06 5.481111817062D-03 8.899718523026D-06 5.153586534500D+03
    5.328000000000D+05-1.396983861923D-07 1.485667201488D+00 1.303851604462D-08
    9.358250658074D-01 1.960625000000D+02-2.748477553099D+00-8.353562245112D-09
    3.507288949806D-10 1.000000000000D+00 2.195000000000D+03 0.000000000000D+00
    2.000000000000D+00 0.000000000000D+00 3.725290298462D-09 5.500000000000D+01
    5.256180000000D+05 4.000000000000D+00
 7 22  2  5  4  0  0.0 3.078640438616D-04 3.069544618484D-12 0.000000000000D+00
    2.900000000000D+01 4.903125000000D+01 4.684480841716D-09 2.063669575390D+00
    2.408400177956D-06 1.550234737806D-02 9.264796972275D-06 5.153699316025D+03
    5.328000000000D+05-2.831220626831D-07 1.472370409909D+00-3.054738044739D-07
    9.506628309228D-01 1.966562500000D+02-2.293147952371D+00-8.098194465162D-09
    4.160887603384D-10 1.000000000000D+00 2.195000000000D+03 0.000000000000D+00
    2.000000000000D+00 0.000000000000D+00-1.117587089539D-08 2.900000000000D+01
    5.256180000000D+05 4.000000000000D+00
 9 22  2  5  4  0  0.0-3.554546274245D-04 1.477928890381D-12 0.000000000000D+00
    2.400000000000D+01-6.781250000000D+01 4.501616081807D-09-9.297281645328D-01
   -3.594905138016D-06 2.288266783580D-03 1.040473580360D-05 5.153633968353D+03
    5.328000000000D+05-3.725290298462D-08 4.005283032687D-01 3.539025783539D-08
    9.544639470602D-01 1.760625000000D+02 1.871694125950D+00-8.074979212439D-09
   -1.960795960737D-10 1.000000000000D+00 2.195000000000D+03 0.000000000000D+00
    2.000000000000D+00 0.000000000000D+00 1.396983861923D-09 2.400000000000D+01
    5.256180000000D+05 4.000000000000D+00
28 22  2  5  4  0  0.0 4.072641022503D-04-8.185452315956D-12 0.000000000000D+00
    9.500000000000D+01-1.196875000000D+01 4.744483341061D-09-8.876531001203D-01
   -5.923211574554D-07 1.686864474323D-02 5.500391125679D-06 5.153694971085D+03
    5.328000000000D+05-2.495944499969D-07 2.607375859602D+00-1.490116119385D-08
    9.695216121696D-01 2.842812500000D+02-1.289834658814D+00-8.542141528768D-09
   -4.750197864808D-11 1.000000000000D+00 2.195000000000D+03 0.000000000000D+00
    4.000000000000D+00 6.300000000000D+01-1.117587089539D-08 9.500000000000D+01
    5.256180000000D+05 4.000000000000D+00
20 22  2  5  4  0  0.0 5.168486386538D-04-2.273736754432D-13 0.000000000000D+00
    4.100000000000D+01-1.906250000000D+01 5.338436653029D-09-2.523222584040D+00
   -9.667128324509D-07 5.211692885496D-03 2.818182110786D-06 5.153737918854D+03
    5.328000000000D+05-9.313225746155D-08-7.816815849070D-01-8.381903171539D-08
    9.415936546180D-01 3.120312500000D+02 3.124019072208D+00-8.671075470813D-09
   -7.214586230761D-11 1.000000000000D+00 2.195000000000D+03 0.000000000000D+00
    2.000000000000D+00 0.000000000000D+00-8.381903171539D-09 4.100000000000D+01
    5.256180000000D+05 4.000000000000D+00
 5 22  2  5  4  0  0.0-7.033022120595D-05-1.364242052659D-12 0.000000000000D+00
    8.500000000000D+01-3.281250000000D+01 4.945920303147D-09-9.021975530866D-01
   -1.655891537666D-06 5.867296596989D-03 3.457069396973D-06 5.153656652451D+03
    5.328000000000D+05 1.490116119385D-08-6.678308836198D-01 9.313225746155D-08
    9.594613498278D-01 3.108437500000D+02 1.011032603166D+00-8.550713314388D-09
   -1.542921411727D-10 1.000000000000D+00 2.195000000000D+03 0.000000000000D+00
    2.000000000000D+00 0.000000000000D+00-1.117587089539D-08 8.500000000000D+01
    5.256180000000D+05 4.000000000000D+00
17 22  2  5  4  0  0.0 5.708909593523D-04 5.115907697473D-12 0.000000000000D+00
    5.700000000000D+01-3.718750000000D+00 4.018738825174D-09-1.370278867969D+00
    3.725290298462D-08 1.365019043442D-02 1.070648431778D-05 5.153758153915D+03
    5.328000000000D+05-2.086162567139D-07-2.660938564303D+00 3.334134817123D-07
    9.802292611118D-01 1.875625000000D+02-1.501359190802D+00-7.838183634667D-09
   -2.325096849617D-10 1.000000000000D+00 2.195000000000D+03 0.000000000000D+00
    2.800000000000D+00 0.000000000000D+00-1.117587089539D-08 5.700000000000D+01
    5.256180000000D+05 4.000000000000D+00
 8 22  2  5  4  0  0.0-5.490565672517D-05-1.477928890381D-12 0.000000000000D+00
    4.400000000000D+01-2.787500000000D+01 4.386968449131D-09-1.276199802959D+00
   -1.667067408562D-06 7.248489418998D-03 9.803101420403D-06 5.153714998245D+03
    5.328000000000D+05 3.352761268616D-08-2.742640370986D+00-1.862645149231D-07
    9.651408732599D-01 1.904687500000D+02 9.537761985499D-02-7.973903573662D-09
   -2.139374827835D-10 1.000000000000D+00 2.195000000000D+03 0.000000000000D+00
    2.000000000000D+00 0.000000000000D+00 5.122274160385D-09 4.400000000000D+01
    5.256180000000D+05 4.000000000000D+00
 4 22  2  5  4  0  0.0-1.913649030030D-04 2.160049916711D-12 0.000000000000D+00
    2.000000000000D+02-6.893750000000D+01 4.270177870048D-09-1.756184901270D+00
   -3.674998879433D-06 1.694516744465D-03 1.056678593159D-05 5.153660333633D+03
    5.328000000000D+05-1.043081283569D-07 4.533830316917D-01-9.313225746155D-09
    9.614568359193D-01 1.767812500000D+02-3.077619787263D+00-7.867113411137D-09
   -1.817932867058D-10 1.000000000000D+00 2.195000000000D+03 0.000000000000D+00
    2.000000000000D+00 0.000000000000D+00-4.190951585770D-09 4.560000000000D+02
    5.256180000000D+05 4.000000000000D+00
